{"type": "FeatureCollection", "features": [ {"type": "Feature", "properties": {"norad_id": 37550, "name": "IRIDIUM 33 DEB", "group": "iridium-33-debris", "lat": -62.169652929836225, "lon": 18.91725872305711, "alt_km": 681.3178384977682, "timestamp": "2025-12-08T08:59:01.152124+00:00", "meta": {"OBJECT_NAME": "IRIDIUM 33 DEB", "OBJECT_ID": "1997-051XK", "EPOCH": "2025-12-06T21:15:18.690336", "MEAN_MOTION": 14.67089693, "ECCENTRICITY": 0.00053572, "INCLINATION": 86.377, "RA_OF_ASC_NODE": 26.47, "ARG_OF_PERICENTER": 124.88, "MEAN_ANOMALY": 235.2918, "EPHEMERIS_TYPE": 0, "CLASSIFICATION_TYPE": "U", "NORAD_CAT_ID": 37550, "ELEMENT_SET_NO": 999, "REV_AT_EPOCH": 86247, "BSTAR": 0.0020360196, "MEAN_MOTION_DOT": 0.00011461, "MEAN_MOTION_DDOT": 0}, "tle": {"line1": "1 37550U 97051XK  25340.88563299  .00011461  00000+0  20360-2 0  9991", "line2": "2 37550  86.3770  26.4700 0005357 124.8800 235.2918 14.67089693862475"}}, "geometry": {"type": "Point", "coordinates": [18.91725872305711, -62.169652929836225]}}, {"type": "Feature", "properties": {"norad_id": 37562, "name": "IRIDIUM 33 DEB", "group": "iridium-33-debris", "lat": -45.515808580243295, "lon": 41.802689856714274, "alt_km": 730.033301670579, "timestamp": "2025-12-08T08:59:01.152134+00:00", "meta": {"OBJECT_NAME": "IRIDIUM 33 DEB", "OBJECT_ID": "1997-051XX", "EPOCH": "2025-12-07T12:03:22.182048", "MEAN_MOTION": 14.56401675, "ECCENTRICITY": 0.00267128, "INCLINATION": 86.3743, "RA_OF_ASC_NODE": 45.8843, "ARG_OF_PERICENTER": 124.2165, "MEAN_ANOMALY": 301.4124, "EPHEMERIS_TYPE": 0, "CLASSIFICATION_TYPE": "U", "NORAD_CAT_ID": 37562, "ELEMENT_SET_NO": 999, "REV_AT_EPOCH": 86252, "BSTAR": 0.0018073618, "MEAN_MOTION_DOT": 8.081e-05, "MEAN_MOTION_DDOT": 0}, "tle": {"line1": "1 37562U 97051XX  25341.50234007  .00008081  00000+0  18074-2 0  9999", "line2": "2 37562  86.3743  45.8843 0026712 124.2165 301.4124 14.56401675862524"}}, "geometry": {"type": "Point", "coordinates": [41.802689856714274, -45.515808580243295]}}, {"type": "Feature", "properties": {"norad_id": 37565, "name": "IRIDIUM 33 DEB", "group": "iridium-33-debris", "lat": 6.940037130685666, "lon": -168.9651679112771, "alt_km": 720.3728902288085, "timestamp": "2025-12-08T08:59:01.152144+00:00", "meta": {"OBJECT_NAME": "IRIDIUM 33 DEB", "OBJECT_ID": "1997-051YA", "EPOCH": "2025-12-07T09:01:39.007488", "MEAN_MOTION": 14.51484742, "ECCENTRICITY": 0.00152828, "INCLINATION": 86.3495, "RA_OF_ASC_NODE": 11.9147, "ARG_OF_PERICENTER": 99.6797, "MEAN_ANOMALY": 260.6136, "EPHEMERIS_TYPE": 0, "CLASSIFICATION_TYPE": "U", "NORAD_CAT_ID": 37565, "ELEMENT_SET_NO": 999, "REV_AT_EPOCH": 65759, "BSTAR": 0.00094060687, "MEAN_MOTION_DOT": 3.783e-05, "MEAN_MOTION_DDOT": 0}, "tle": {"line1": "1 37565U 97051YA  25341.37614592  .00003783  00000+0  94061-3 0  9993", "line2": "2 37565  86.3495  11.9147 0015282  99.6797 260.6136 14.51484742657597"}}, "geometry": {"type": "Point", "coordinates": [-168.9651679112771, 6.940037130685666]}}, {"type": "Feature", "properties": {"norad_id": 38017, "name": "IRIDIUM 33 DEB", "group": "iridium-33-debris", "lat": -57.53564063729512, "lon": 162.35033748653444, "alt_km": 801.9169718831417, "timestamp": "2025-12-08T08:59:01.152154+00:00", "meta": {"OBJECT_NAME": "IRIDIUM 33 DEB", "OBJECT_ID": "1997-051YD", "EPOCH": "2025-12-07T11:42:12.975552", "MEAN_MOTION": 14.48705, "ECCENTRICITY": 0.00918392, "INCLINATION": 86.342, "RA_OF_ASC_NODE": 168.5067, "ARG_OF_PERICENTER": 120.6182, "MEAN_ANOMALY": 240.4119, "EPHEMERIS_TYPE": 0, "CLASSIFICATION_TYPE": "U", "NORAD_CAT_ID": 38017, "ELEMENT_SET_NO": 999, "REV_AT_EPOCH": 61326, "BSTAR": 0.0079699142, "MEAN_MOTION_DOT": 0.00031814, "MEAN_MOTION_DDOT": 0}, "tle": {"line1": "1 38017U 97051YD  25341.48765018  .00031814  00000+0  79699-2 0  9993", "line2": "2 38017  86.3420 168.5067 0091839 120.6182 240.4119 14.48705000613265"}}, "geometry": {"type": "Point", "coordinates": [162.35033748653444, -57.53564063729512]}}, {"type": "Feature", "properties": {"norad_id": 38022, "name": "IRIDIUM 33 DEB", "group": "iridium-33-debris", "lat": -24.511087332142058, "lon": -159.93998761261935, "alt_km": 785.8065942708417, "timestamp": "2025-12-08T08:59:01.152164+00:00", "meta": {"OBJECT_NAME": "IRIDIUM 33 DEB", "OBJECT_ID": "1997-051YJ", "EPOCH": "2025-12-07T08:42:47.311776", "MEAN_MOTION": 14.41201446, "ECCENTRICITY": 0.00469795, "INCLINATION": 86.2687, "RA_OF_ASC_NODE": 18.7976, "ARG_OF_PERICENTER": 67.6005, "MEAN_ANOMALY": 293.0162, "EPHEMERIS_TYPE": 0, "CLASSIFICATION_TYPE": "U", "NORAD_CAT_ID": 38022, "ELEMENT_SET_NO": 999, "REV_AT_EPOCH": 69116, "BSTAR": 0.0015997038, "MEAN_MOTION_DOT": 5.249e-05, "MEAN_MOTION_DDOT": 0}, "tle": {"line1": "1 38022U 97051YJ  25341.36304759  .00005249  00000+0  15997-2 0  9991", "line2": "2 38022  86.2687  18.7976 0046979  67.6005 293.0162 14.41201446691164"}}, "geometry": {"type": "Point", "coordinates": [-159.93998761261935, -24.511087332142058]}}, {"type": "Feature", "properties": {"norad_id": 38028, "name": "IRIDIUM 33 DEB", "group": "iridium-33-debris", "lat": -86.30384552714553, "lon": -81.65909216561472, "alt_km": 760.6618260510622, "timestamp": "2025-12-08T08:59:01.152174+00:00", "meta": {"OBJECT_NAME": "IRIDIUM 33 DEB", "OBJECT_ID": "1997-051YQ", "EPOCH": "2025-12-06T19:12:19.598112", "MEAN_MOTION": 14.46166745, "ECCENTRICITY": 0.00294822, "INCLINATION": 86.3276, "RA_OF_ASC_NODE": 2.8528, "ARG_OF_PERICENTER": 139.7765, "MEAN_ANOMALY": 220.5627, "EPHEMERIS_TYPE": 0, "CLASSIFICATION_TYPE": "U", "NORAD_CAT_ID": 38028, "ELEMENT_SET_NO": 999, "REV_AT_EPOCH": 65409, "BSTAR": 0.00054862399, "MEAN_MOTION_DOT": 1.991e-05, "MEAN_MOTION_DDOT": 0}, "tle": {"line1": "1 38028U 97051YQ  25340.80022683  .00001991  00000+0  54862-3 0  9993", "line2": "2 38028  86.3276   2.8528 0029482 139.7765 220.5627 14.46166745654095"}}, "geometry": {"type": "Point", "coordinates": [-81.65909216561472, -86.30384552714553]}}, {"type": "Feature", "properties": {"norad_id": 38228, "name": "IRIDIUM 33 DEB", "group": "iridium-33-debris", "lat": 39.54351727524155, "lon": -132.74040790148916, "alt_km": 777.2505258308374, "timestamp": "2025-12-08T08:59:01.152185+00:00", "meta": {"OBJECT_NAME": "IRIDIUM 33 DEB", "OBJECT_ID": "1997-051ZC", "EPOCH": "2025-12-07T23:04:01.905888", "MEAN_MOTION": 14.27255486, "ECCENTRICITY": 0.00637948, "INCLINATION": 86.2953, "RA_OF_ASC_NODE": 50.5015, "ARG_OF_PERICENTER": 205.0626, "MEAN_ANOMALY": 334.1945, "EPHEMERIS_TYPE": 0, "CLASSIFICATION_TYPE": "U", "NORAD_CAT_ID": 38228, "ELEMENT_SET_NO": 999, "REV_AT_EPOCH": 84713, "BSTAR": 0.00053272722, "MEAN_MOTION_DOT": 1.349e-05, "MEAN_MOTION_DDOT": 0}, "tle": {"line1": "1 38228U 97051ZC  25341.96113317  .00001349  00000+0  53273-3 0  9990", "line2": "2 38228  86.2953  50.5015 0063794 205.0626 334.1945 14.27255486847130"}}, "geometry": {"type": "Point", "coordinates": [-132.74040790148916, 39.54351727524155]}}, {"type": "Feature", "properties": {"norad_id": 38241, "name": "IRIDIUM 33 DEB", "group": "iridium-33-debris", "lat": -10.42393879947159, "lon": -8.15248467886159, "alt_km": 714.1529284893477, "timestamp": "2025-12-08T08:59:01.152195+00:00", "meta": {"OBJECT_NAME": "IRIDIUM 33 DEB", "OBJECT_ID": "1997-051ZR", "EPOCH": "2025-12-05T18:18:10.298016", "MEAN_MOTION": 14.54799988, "ECCENTRICITY": 0.00056722, "INCLINATION": 86.3224, "RA_OF_ASC_NODE": 353.6772, "ARG_OF_PERICENTER": 87.2865, "MEAN_ANOMALY": 272.8992, "EPHEMERIS_TYPE": 0, "CLASSIFICATION_TYPE": "U", "NORAD_CAT_ID": 38241, "ELEMENT_SET_NO": 999, "REV_AT_EPOCH": 60099, "BSTAR": 0.0014749391, "MEAN_MOTION_DOT": 6.345e-05, "MEAN_MOTION_DDOT": 0}, "tle": {"line1": "1 38241U 97051ZR  25339.76261919  .00006345  00000+0  14749-2 0  9997", "line2": "2 38241  86.3224 353.6772 0005672  87.2865 272.8992 14.54799988600991"}}, "geometry": {"type": "Point", "coordinates": [-8.15248467886159, -10.42393879947159]}}, {"type": "Feature", "properties": {"norad_id": 38474, "name": "IRIDIUM 33 DEB", "group": "iridium-33-debris", "lat": -8.84805002099898, "lon": -167.46594037353407, "alt_km": 726.6992268468885, "timestamp": "2025-12-08T08:59:01.152205+00:00", "meta": {"OBJECT_NAME": "IRIDIUM 33 DEB", "OBJECT_ID": "1997-051AAB", "EPOCH": "2025-12-06T19:41:55.119840", "MEAN_MOTION": 14.50656984, "ECCENTRICITY": 0.00279512, "INCLINATION": 86.3423, "RA_OF_ASC_NODE": 12.6404, "ARG_OF_PERICENTER": 106.4203, "MEAN_ANOMALY": 254.0078, "EPHEMERIS_TYPE": 0, "CLASSIFICATION_TYPE": "U", "NORAD_CAT_ID": 38474, "ELEMENT_SET_NO": 999, "REV_AT_EPOCH": 65232, "BSTAR": 0.0010644651, "MEAN_MOTION_DOT": 4.219e-05, "MEAN_MOTION_DDOT": 0}, "tle": {"line1": "1 38474U 97051AAB 25340.82077685  .00004219  00000+0  10645-2 0  9998", "line2": "2 38474  86.3423  12.6404 0027951 106.4203 254.0078 14.50656984652323"}}, "geometry": {"type": "Point", "coordinates": [-167.46594037353407, -8.84805002099898]}}, {"type": "Feature", "properties": {"norad_id": 39777, "name": "IRIDIUM 33 DEB", "group": "iridium-33-debris", "lat": 34.52369795445042, "lon": -5.623815580457937, "alt_km": 679.5524034833925, "timestamp": "2025-12-08T08:59:01.152215+00:00", "meta": {"OBJECT_NAME": "IRIDIUM 33 DEB", "OBJECT_ID": "1997-051AAJ", "EPOCH": "2025-12-06T00:14:36.412224", "MEAN_MOTION": 14.5619016, "ECCENTRICITY": 0.00596608, "INCLINATION": 85.9622, "RA_OF_ASC_NODE": 178.3085, "ARG_OF_PERICENTER": 209.6605, "MEAN_ANOMALY": 150.1216, "EPHEMERIS_TYPE": 0, "CLASSIFICATION_TYPE": "U", "NORAD_CAT_ID": 39777, "ELEMENT_SET_NO": 999, "REV_AT_EPOCH": 60087, "BSTAR": 0.0037764101, "MEAN_MOTION_DOT": 0.00017134, "MEAN_MOTION_DDOT": 0}, "tle": {"line1": "1 39777U 97051AAJ 25340.01014366  .00017134  00000+0  37764-2 0  9994", "line2": "2 39777  85.9622 178.3085 0059660 209.6605 150.1216 14.56190160600873"}}, "geometry": {"type": "Point", "coordinates": [-5.623815580457937, 34.52369795445042]}}]}